{"type": "FeatureCollection", "features": [ {"type": "Feature", "properties": {"norad_id": 30741, "name": "FENGYUN 1C DEB", "group": "fengyun-1c-debris", "lat": 69.91346285227674, "lon": -27.302954185209927, "alt_km": 837.6686149350908, "timestamp": "2025-12-14T03:55:53.066010+00:00", "meta": {"OBJECT_NAME": "FENGYUN 1C DEB", "OBJECT_ID": "1999-025ATB", "EPOCH": "2025-12-12T13:07:51.189600", "MEAN_MOTION": 14.13234199, "ECCENTRICITY": 0.00070348, "INCLINATION": 98.6798, "RA_OF_ASC_NODE": 355.8207, "ARG_OF_PERICENTER": 117.2905, "MEAN_ANOMALY": 14.0847, "EPHEMERIS_TYPE": 0, "CLASSIFICATION_TYPE": "U", "NORAD_CAT_ID": 30741, "ELEMENT_SET_NO": 999, "REV_AT_EPOCH": 96816, "BSTAR": 0.00023549902, "MEAN_MOTION_DOT": 3.99e-06, "MEAN_MOTION_DDOT": 0}, "tle": {"line1": "1 30741U 99025ATB 25346.54712025  .00000399  00000+0  23550-3 0  9994", "line2": "2 30741  98.6798 355.8207 0007034 117.2905  14.0847 14.13234199968164"}}, "geometry": {"type": "Point", "coordinates": [-27.302954185209927, 69.91346285227674]}}, {"type": "Feature", "properties": {"norad_id": 30742, "name": "FENGYUN 1C DEB", "group": "fengyun-1c-debris", "lat": 54.5853573125181, "lon": 19.891702901136373, "alt_km": 903.0153652095332, "timestamp": "2025-12-14T03:55:53.066020+00:00", "meta": {"OBJECT_NAME": "FENGYUN 1C DEB", "OBJECT_ID": "1999-025ATC", "EPOCH": "2025-12-13T02:23:24.691776", "MEAN_MOTION": 14.1037179, "ECCENTRICITY": 0.00711108, "INCLINATION": 98.8685, "RA_OF_ASC_NODE": 31.5265, "ARG_OF_PERICENTER": 225.8107, "MEAN_ANOMALY": 189.6017, "EPHEMERIS_TYPE": 0, "CLASSIFICATION_TYPE": "U", "NORAD_CAT_ID": 30742, "ELEMENT_SET_NO": 999, "REV_AT_EPOCH": 96047, "BSTAR": 0.0020572153, "MEAN_MOTION_DOT": 3.698e-05, "MEAN_MOTION_DDOT": 0}, "tle": {"line1": "1 30742U 99025ATC 25347.09959134  .00003698  00000+0  20572-2 0  9995", "line2": "2 30742  98.8685  31.5265 0071110 225.8107 189.6017 14.10371790960470"}}, "geometry": {"type": "Point", "coordinates": [19.891702901136373, 54.5853573125181]}}, {"type": "Feature", "properties": {"norad_id": 30744, "name": "FENGYUN 1C DEB", "group": "fengyun-1c-debris", "lat": -48.340848978988234, "lon": -55.52758275699267, "alt_km": 600.4073920976434, "timestamp": "2025-12-14T03:55:53.066032+00:00", "meta": {"OBJECT_NAME": "FENGYUN 1C DEB", "OBJECT_ID": "1999-025ATE", "EPOCH": "2025-12-12T09:13:56.111808", "MEAN_MOTION": 14.89469097, "ECCENTRICITY": 0.0010429, "INCLINATION": 98.7308, "RA_OF_ASC_NODE": 132.457, "ARG_OF_PERICENTER": 278.1205, "MEAN_ANOMALY": 136.0955, "EPHEMERIS_TYPE": 0, "CLASSIFICATION_TYPE": "U", "NORAD_CAT_ID": 30744, "ELEMENT_SET_NO": 999, "REV_AT_EPOCH": 98083, "BSTAR": 0.006878409, "MEAN_MOTION_DOT": 0.00066066, "MEAN_MOTION_DDOT": 0}, "tle": {"line1": "1 30744U 99025ATE 25346.38467722  .00066066  00000+0  68784-2 0  9990", "line2": "2 30744  98.7308 132.4570 0010429 278.1205 136.0955 14.89469097980832"}}, "geometry": {"type": "Point", "coordinates": [-55.52758275699267, -48.340848978988234]}}, {"type": "Feature", "properties": {"norad_id": 30746, "name": "FENGYUN 1C DEB", "group": "fengyun-1c-debris", "lat": 59.328794876304215, "lon": 4.410223999249606, "alt_km": 826.2957780166498, "timestamp": "2025-12-14T03:55:53.066042+00:00", "meta": {"OBJECT_NAME": "FENGYUN 1C DEB", "OBJECT_ID": "1999-025ATG", "EPOCH": "2025-12-13T06:19:02.839584", "MEAN_MOTION": 14.27517231, "ECCENTRICITY": 0.0046188, "INCLINATION": 99.0574, "RA_OF_ASC_NODE": 167.8751, "ARG_OF_PERICENTER": 316.7614, "MEAN_ANOMALY": 216.928, "EPHEMERIS_TYPE": 0, "CLASSIFICATION_TYPE": "U", "NORAD_CAT_ID": 30746, "ELEMENT_SET_NO": 999, "REV_AT_EPOCH": 97453, "BSTAR": 0.00069529782, "MEAN_MOTION_DOT": 1.681e-05, "MEAN_MOTION_DDOT": 0}, "tle": {"line1": "1 30746U 99025ATG 25347.26322731  .00001681  00000+0  69530-3 0  9993", "line2": "2 30746  99.0574 167.8751 0046188 316.7614 216.9280 14.27517231974535"}}, "geometry": {"type": "Point", "coordinates": [4.410223999249606, 59.328794876304215]}}, {"type": "Feature", "properties": {"norad_id": 30749, "name": "FENGYUN 1C DEB", "group": "fengyun-1c-debris", "lat": -24.38069393142213, "lon": 18.994757418510844, "alt_km": 911.337670940452, "timestamp": "2025-12-14T03:55:53.066052+00:00", "meta": {"OBJECT_NAME": "FENGYUN 1C DEB", "OBJECT_ID": "1999-025ATK", "EPOCH": "2025-12-13T00:36:10.077696", "MEAN_MOTION": 13.99837594, "ECCENTRICITY": 0.00554119, "INCLINATION": 98.8876, "RA_OF_ASC_NODE": 13.8224, "ARG_OF_PERICENTER": 231.6452, "MEAN_ANOMALY": 127.9726, "EPHEMERIS_TYPE": 0, "CLASSIFICATION_TYPE": "U", "NORAD_CAT_ID": 30749, "ELEMENT_SET_NO": 999, "REV_AT_EPOCH": 95970, "BSTAR": 0.0001349532, "MEAN_MOTION_DOT": 1.57e-06, "MEAN_MOTION_DDOT": 0}, "tle": {"line1": "1 30749U 99025ATK 25347.02511664  .00000157  00000+0  13495-3 0  9991", "line2": "2 30749  98.8876  13.8224 0055411 231.6452 127.9726 13.99837594959702"}}, "geometry": {"type": "Point", "coordinates": [18.994757418510844, -24.38069393142213]}}, {"type": "Feature", "properties": {"norad_id": 30750, "name": "FENGYUN 1C DEB", "group": "fengyun-1c-debris", "lat": 29.026617387731175, "lon": 57.74323781565759, "alt_km": 783.1788442419129, "timestamp": "2025-12-14T03:55:53.066062+00:00", "meta": {"OBJECT_NAME": "FENGYUN 1C DEB", "OBJECT_ID": "1999-025ATL", "EPOCH": "2025-12-13T04:21:33.358176", "MEAN_MOTION": 14.28612384, "ECCENTRICITY": 0.00405728, "INCLINATION": 98.9196, "RA_OF_ASC_NODE": 61.7391, "ARG_OF_PERICENTER": 98.8376, "MEAN_ANOMALY": 282.614, "EPHEMERIS_TYPE": 0, "CLASSIFICATION_TYPE": "U", "NORAD_CAT_ID": 30750, "ELEMENT_SET_NO": 999, "REV_AT_EPOCH": 96788, "BSTAR": 0.0025580097, "MEAN_MOTION_DOT": 6.439e-05, "MEAN_MOTION_DDOT": 0}, "tle": {"line1": "1 30750U 99025ATL 25347.18163609  .00006439  00000+0  25580-2 0  9998", "line2": "2 30750  98.9196  61.7391 0040572  98.8376 282.6140 14.28612384967885"}}, "geometry": {"type": "Point", "coordinates": [57.74323781565759, 29.026617387731175]}}, {"type": "Feature", "properties": {"norad_id": 30751, "name": "FENGYUN 1C DEB", "group": "fengyun-1c-debris", "lat": 52.58364420392187, "lon": 35.597623204180266, "alt_km": 807.1063829586992, "timestamp": "2025-12-14T03:55:53.066073+00:00", "meta": {"OBJECT_NAME": "FENGYUN 1C DEB", "OBJECT_ID": "1999-025ATM", "EPOCH": "2025-12-12T02:36:47.377152", "MEAN_MOTION": 14.1519627, "ECCENTRICITY": 0.00524243, "INCLINATION": 98.8552, "RA_OF_ASC_NODE": 45.3161, "ARG_OF_PERICENTER": 98.3509, "MEAN_ANOMALY": 292.1176, "EPHEMERIS_TYPE": 0, "CLASSIFICATION_TYPE": "U", "NORAD_CAT_ID": 30751, "ELEMENT_SET_NO": 999, "REV_AT_EPOCH": 96267, "BSTAR": 0.0022600098, "MEAN_MOTION_DOT": 4.407e-05, "MEAN_MOTION_DDOT": 0}, "tle": {"line1": "1 30751U 99025ATM 25346.10888168  .00004407  00000+0  22600-2 0  9997", "line2": "2 30751  98.8552  45.3161 0052424  98.3509 292.1176 14.15196270962670"}}, "geometry": {"type": "Point", "coordinates": [35.597623204180266, 52.58364420392187]}}, {"type": "Feature", "properties": {"norad_id": 30753, "name": "FENGYUN 1C DEB", "group": "fengyun-1c-debris", "lat": -21.440163713722534, "lon": -156.75918823726457, "alt_km": 889.9358826139314, "timestamp": "2025-12-14T03:55:53.066083+00:00", "meta": {"OBJECT_NAME": "FENGYUN 1C DEB", "OBJECT_ID": "1999-025ATP", "EPOCH": "2025-12-13T01:28:47.830944", "MEAN_MOTION": 14.12646368, "ECCENTRICITY": 0.00553182, "INCLINATION": 98.8078, "RA_OF_ASC_NODE": 25.648, "ARG_OF_PERICENTER": 354.2086, "MEAN_ANOMALY": 5.844, "EPHEMERIS_TYPE": 0, "CLASSIFICATION_TYPE": "U", "NORAD_CAT_ID": 30753, "ELEMENT_SET_NO": 999, "REV_AT_EPOCH": 96356, "BSTAR": 0.0014506302, "MEAN_MOTION_DOT": 2.683e-05, "MEAN_MOTION_DDOT": 0}, "tle": {"line1": "1 30753U 99025ATP 25347.06166471  .00002683  00000+0  14506-2 0  9991", "line2": "2 30753  98.8078  25.6480 0055318 354.2086   5.8440 14.12646368963566"}}, "geometry": {"type": "Point", "coordinates": [-156.75918823726457, -21.440163713722534]}}, {"type": "Feature", "properties": {"norad_id": 30755, "name": "FENGYUN 1C DEB", "group": "fengyun-1c-debris", "lat": 51.74225875594585, "lon": 173.3034410895798, "alt_km": 815.5740278546455, "timestamp": "2025-12-14T03:55:53.066093+00:00", "meta": {"OBJECT_NAME": "FENGYUN 1C DEB", "OBJECT_ID": "1999-025ATR", "EPOCH": "2025-12-12T23:12:24.574176", "MEAN_MOTION": 14.44955477, "ECCENTRICITY": 0.01508479, "INCLINATION": 98.2589, "RA_OF_ASC_NODE": 341.5253, "ARG_OF_PERICENTER": 268.4036, "MEAN_ANOMALY": 117.9569, "EPHEMERIS_TYPE": 0, "CLASSIFICATION_TYPE": "U", "NORAD_CAT_ID": 30755, "ELEMENT_SET_NO": 999, "REV_AT_EPOCH": 98448, "BSTAR": 0.0009878452, "MEAN_MOTION_DOT": 3.912e-05, "MEAN_MOTION_DDOT": 0}, "tle": {"line1": "1 30755U 99025ATR 25346.96695109  .00003912  00000+0  98785-3 0  9994", "line2": "2 30755  98.2589 341.5253 0150847 268.4036 117.9569 14.44955477984481"}}, "geometry": {"type": "Point", "coordinates": [173.3034410895798, 51.74225875594585]}}, {"type": "Feature", "properties": {"norad_id": 30756, "name": "FENGYUN 1C DEB", "group": "fengyun-1c-debris", "lat": -35.152618857565116, "lon": 61.98918963541997, "alt_km": 787.2437962229706, "timestamp": "2025-12-14T03:55:53.066124+00:00", "meta": {"OBJECT_NAME": "FENGYUN 1C DEB", "OBJECT_ID": "1999-025ATS", "EPOCH": "2025-12-12T03:08:07.313280", "MEAN_MOTION": 14.1827116, "ECCENTRICITY": 0.00710878, "INCLINATION": 98.9907, "RA_OF_ASC_NODE": 53.5291, "ARG_OF_PERICENTER": 317.973, "MEAN_ANOMALY": 71.1189, "EPHEMERIS_TYPE": 0, "CLASSIFICATION_TYPE": "U", "NORAD_CAT_ID": 30756, "ELEMENT_SET_NO": 999, "REV_AT_EPOCH": 96396, "BSTAR": 0.0022053291, "MEAN_MOTION_DOT": 4.61e-05, "MEAN_MOTION_DDOT": 0}, "tle": {"line1": "1 30756U 99025ATS 25346.13064020  .00004610  00000+0  22053-2 0  9996", "line2": "2 30756  98.9907  53.5291 0071087 317.9730  71.1189 14.18271160963964"}}, "geometry": {"type": "Point", "coordinates": [61.98918963541997, -35.152618857565116]}}]}